{
"type": "FeatureCollection",
"name": "geometria_raios",
"crs": { "type": "name", "properties": { "name": "urn:ogc:def:crs:EPSG::4618" } },
"features": [
{ "type": "Feature", "properties": { "Data_hora": "2025-02-20T16:29:48", "lon": -46.6613, "lat": -23.6748, "chi_square_value": 0.1, "max_rate_of_rise": -1.2, "Precisao_coleta": "Altamente Confiável", "Intensidade_do_Raio": "Leve", "Status_Raio": "Raio Comum" }, "geometry": { "type": "Point", "coordinates": [ -46.6613, -23.6748 ] } },
{ "type": "Feature", "properties": { "Data_hora": "2025-09-22T01:24:45", "lon": -46.5182, "lat": -23.5177, "chi_square_value": 0.4, "max_rate_of_rise": 1.6, "Precisao_coleta": "Altamente Confiável", "Intensidade_do_Raio": "Leve", "Status_Raio": "Raio Nuvem-a-Nuvem" }, "geometry": { "type": "Point", "coordinates": [ -46.5182, -23.5177 ] } },
{ "type": "Feature", "properties": { "Data_hora": "2025-10-29T08:52:33", "lon": -46.7249, "lat": -23.691, "chi_square_value": 0.1, "max_rate_of_rise": 0.9, "Precisao_coleta": "Altamente Confiável", "Intensidade_do_Raio": "Leve", "Status_Raio": "Raio Nuvem-a-Nuvem" }, "geometry": { "type": "Point", "coordinates": [ -46.7249, -23.691 ] } },
{ "type": "Feature", "properties": { "Data_hora": "2025-01-29T14:35:27", "lon": -46.7146, "lat": -23.7133, "chi_square_value": 0.1, "max_rate_of_rise": -4.7, "Precisao_coleta": "Altamente Confiável", "Intensidade_do_Raio": "Leve", "Status_Raio": "Raio Comum" }, "geometry": { "type": "Point", "coordinates": [ -46.7146, -23.7133 ] } },
{ "type": "Feature", "properties": { "Data_hora": "2025-01-29T14:37:05", "lon": -46.6543, "lat": -23.6966, "chi_square_value": 0.0, "max_rate_of_rise": -1.4, "Precisao_coleta": "Altamente Confiável", "Intensidade_do_Raio": "Leve", "Status_Raio": "Raio Comum" }, "geometry": { "type": "Point", "coordinates": [ -46.6543, -23.6966 ] } },
{ "type": "Feature", "properties": { "Data_hora": "2025-01-29T14:49:16", "lon": -46.6187, "lat": -23.69, "chi_square_value": 0.0, "max_rate_of_rise": 0.0, "Precisao_coleta": "Altamente Confiável", "Intensidade_do_Raio": "Leve", "Status_Raio": "Raio Nuvem-a-Nuvem" }, "geometry": { "type": "Point", "coordinates": [ -46.6187, -23.69 ] } },
{ "type": "Feature", "properties": { "Data_hora": "2025-01-29T14:49:17", "lon": -46.6192, "lat": -23.6926, "chi_square_value": 0.0, "max_rate_of_rise": 0.0, "Precisao_coleta": "Altamente Confiável", "Intensidade_do_Raio": "Leve", "Status_Raio": "Raio Comum" }, "geometry": { "type": "Point", "coordinates": [ -46.6192, -23.6926 ] } },
{ "type": "Feature", "properties": { "Data_hora": "2025-02-06T22:37:39", "lon": -46.6835, "lat": -23.6188, "chi_square_value": 0.0, "max_rate_of_rise": -1.7, "Precisao_coleta": "Altamente Confiável", "Intensidade_do_Raio": "Leve", "Status_Raio": "Raio Comum" }, "geometry": { "type": "Point", "coordinates": [ -46.6835, -23.6188 ] } },
{ "type": "Feature", "properties": { "Data_hora": "2025-02-06T23:12:21", "lon": -46.763, "lat": -23.7013, "chi_square_value": 0.3, "max_rate_of_rise": -1.1, "Precisao_coleta": "Altamente Confiável", "Intensidade_do_Raio": "Leve", "Status_Raio": "Raio Comum" }, "geometry": { "type": "Point", "coordinates": [ -46.763, -23.7013 ] } },
{ "type": "Feature", "properties": { "Data_hora": "2025-02-06T23:14:40", "lon": -46.6207, "lat": -23.7241, "chi_square_value": 0.1, "max_rate_of_rise": 5.1, "Precisao_coleta": "Altamente Confiável", "Intensidade_do_Raio": "Leve", "Status_Raio": "Raio Nuvem-a-Nuvem" }, "geometry": { "type": "Point", "coordinates": [ -46.6207, -23.7241 ] } },
{ "type": "Feature", "properties": { "Data_hora": "2025-02-06T22:26:21", "lon": -46.5647, "lat": -23.6403, "chi_square_value": 0.2, "max_rate_of_rise": -2.1, "Precisao_coleta": "Altamente Confiável", "Intensidade_do_Raio": "Leve", "Status_Raio": "Raio Comum" }, "geometry": { "type": "Point", "coordinates": [ -46.5647, -23.6403 ] } },
{ "type": "Feature", "properties": { "Data_hora": "2025-03-31T18:20:26", "lon": -46.5221, "lat": -23.6537, "chi_square_value": 0.0, "max_rate_of_rise": -1.7, "Precisao_coleta": "Altamente Confiável", "Intensidade_do_Raio": "Leve", "Status_Raio": "Raio Comum" }, "geometry": { "type": "Point", "coordinates": [ -46.5221, -23.6537 ] } },
{ "type": "Feature", "properties": { "Data_hora": "2025-01-30T18:00:20", "lon": -46.6318, "lat": -23.6929, "chi_square_value": 0.2, "max_rate_of_rise": -3.8, "Precisao_coleta": "Altamente Confiável", "Intensidade_do_Raio": "Leve", "Status_Raio": "Raio Comum" }, "geometry": { "type": "Point", "coordinates": [ -46.6318, -23.6929 ] } },
{ "type": "Feature", "properties": { "Data_hora": "2025-02-13T17:15:41", "lon": -46.7986, "lat": -23.7278, "chi_square_value": 0.0, "max_rate_of_rise": -3.7, "Precisao_coleta": "Altamente Confiável", "Intensidade_do_Raio": "Leve", "Status_Raio": "Raio Comum" }, "geometry": { "type": "Point", "coordinates": [ -46.7986, -23.7278 ] } },
{ "type": "Feature", "properties": { "Data_hora": "2025-02-13T17:19:30", "lon": -46.4845, "lat": -23.6495, "chi_square_value": 0.0, "max_rate_of_rise": 0.9, "Precisao_coleta": "Altamente Confiável", "Intensidade_do_Raio": "Leve", "Status_Raio": "Raio Nuvem-a-Nuvem" }, "geometry": { "type": "Point", "coordinates": [ -46.4845, -23.6495 ] } },
{ "type": "Feature", "properties": { "Data_hora": "2025-02-18T17:23:21", "lon": -46.6046, "lat": -23.5947, "chi_square_value": 0.5, "max_rate_of_rise": -1.8, "Precisao_coleta": "Altamente Confiável", "Intensidade_do_Raio": "Leve", "Status_Raio": "Raio Comum" }, "geometry": { "type": "Point", "coordinates": [ -46.6046, -23.5947 ] } },
{ "type": "Feature", "properties": { "Data_hora": "2025-02-18T23:25:58", "lon": -46.5471, "lat": -23.6555, "chi_square_value": 0.2, "max_rate_of_rise": -1.4, "Precisao_coleta": "Altamente Confiável", "Intensidade_do_Raio": "Leve", "Status_Raio": "Raio Comum" }, "geometry": { "type": "Point", "coordinates": [ -46.5471, -23.6555 ] } },
{ "type": "Feature", "properties": { "Data_hora": "2025-02-18T23:29:34", "lon": -46.6703, "lat": -23.6345, "chi_square_value": 0.1, "max_rate_of_rise": -1.5, "Precisao_coleta": "Altamente Confiável", "Intensidade_do_Raio": "Leve", "Status_Raio": "Raio Comum" }, "geometry": { "type": "Point", "coordinates": [ -46.6703, -23.6345 ] } },
{ "type": "Feature", "properties": { "Data_hora": "2025-03-31T18:01:09", "lon": -46.5676, "lat": -23.662, "chi_square_value": 0.1, "max_rate_of_rise": -1.2, "Precisao_coleta": "Altamente Confiável", "Intensidade_do_Raio": "Leve", "Status_Raio": "Raio Comum" }, "geometry": { "type": "Point", "coordinates": [ -46.5676, -23.662 ] } },
{ "type": "Feature", "properties": { "Data_hora": "2025-10-29T08:56:29", "lon": -46.6273, "lat": -23.6776, "chi_square_value": 0.1, "max_rate_of_rise": 3.6, "Precisao_coleta": "Altamente Confiável", "Intensidade_do_Raio": "Leve", "Status_Raio": "Raio Nuvem-a-Nuvem" }, "geometry": { "type": "Point", "coordinates": [ -46.6273, -23.6776 ] } },
{ "type": "Feature", "properties": { "Data_hora": "2025-02-18T17:32:22", "lon": -46.6439, "lat": -23.6655, "chi_square_value": 0.2, "max_rate_of_rise": 2.1, "Precisao_coleta": "Altamente Confiável", "Intensidade_do_Raio": "Leve", "Status_Raio": "Raio Nuvem-a-Nuvem" }, "geometry": { "type": "Point", "coordinates": [ -46.6439, -23.6655 ] } },
{ "type": "Feature", "properties": { "Data_hora": "2025-04-18T17:59:19", "lon": -46.6272, "lat": -23.7009, "chi_square_value": 0.0, "max_rate_of_rise": 0.0, "Precisao_coleta": "Altamente Confiável", "Intensidade_do_Raio": "Leve", "Status_Raio": "Raio Comum" }, "geometry": { "type": "Point", "coordinates": [ -46.6272, -23.7009 ] } },
{ "type": "Feature", "properties": { "Data_hora": "2025-05-22T20:04:29", "lon": -46.6231, "lat": -23.6793, "chi_square_value": 0.0, "max_rate_of_rise": -1.2, "Precisao_coleta": "Altamente Confiável", "Intensidade_do_Raio": "Leve", "Status_Raio": "Raio Comum" }, "geometry": { "type": "Point", "coordinates": [ -46.6231, -23.6793 ] } },
{ "type": "Feature", "properties": { "Data_hora": "2025-12-30T18:06:41", "lon": -46.6374, "lat": -23.7233, "chi_square_value": 0.1, "max_rate_of_rise": 3.2, "Precisao_coleta": "Altamente Confiável", "Intensidade_do_Raio": "Leve", "Status_Raio": "Raio Nuvem-a-Nuvem" }, "geometry": { "type": "Point", "coordinates": [ -46.6374, -23.7233 ] } },
{ "type": "Feature", "properties": { "Data_hora": "2025-12-30T18:15:51", "lon": -46.6461, "lat": -23.6389, "chi_square_value": 0.5, "max_rate_of_rise": 0.9, "Precisao_coleta": "Altamente Confiável", "Intensidade_do_Raio": "Leve", "Status_Raio": "Raio Nuvem-a-Nuvem" }, "geometry": { "type": "Point", "coordinates": [ -46.6461, -23.6389 ] } },
{ "type": "Feature", "properties": { "Data_hora": "2025-01-29T14:23:57", "lon": -46.6203, "lat": -23.6773, "chi_square_value": 0.0, "max_rate_of_rise": 0.6, "Precisao_coleta": "Altamente Confiável", "Intensidade_do_Raio": "Leve", "Status_Raio": "Raio Nuvem-a-Nuvem" }, "geometry": { "type": "Point", "coordinates": [ -46.6203, -23.6773 ] } },
{ "type": "Feature", "properties": { "Data_hora": "2025-04-18T18:24:25", "lon": -46.6316, "lat": -23.6779, "chi_square_value": 0.2, "max_rate_of_rise": -0.6, "Precisao_coleta": "Altamente Confiável", "Intensidade_do_Raio": "Leve", "Status_Raio": "Raio Comum" }, "geometry": { "type": "Point", "coordinates": [ -46.6316, -23.6779 ] } },
{ "type": "Feature", "properties": { "Data_hora": "2025-10-10T01:17:30", "lon": -46.6202, "lat": -23.6707, "chi_square_value": 0.4, "max_rate_of_rise": -5.5, "Precisao_coleta": "Altamente Confiável", "Intensidade_do_Raio": "Leve", "Status_Raio": "Raio Comum" }, "geometry": { "type": "Point", "coordinates": [ -46.6202, -23.6707 ] } },
{ "type": "Feature", "properties": { "Data_hora": "2025-11-08T05:48:05", "lon": -46.5944, "lat": -23.644, "chi_square_value": 0.3, "max_rate_of_rise": 1.9, "Precisao_coleta": "Altamente Confiável", "Intensidade_do_Raio": "Leve", "Status_Raio": "Raio Nuvem-a-Nuvem" }, "geometry": { "type": "Point", "coordinates": [ -46.5944, -23.644 ] } },
{ "type": "Feature", "properties": { "Data_hora": "2025-12-30T18:42:07", "lon": -46.592, "lat": -23.6399, "chi_square_value": 0.0, "max_rate_of_rise": 1.6, "Precisao_coleta": "Altamente Confiável", "Intensidade_do_Raio": "Leve", "Status_Raio": "Raio Nuvem-a-Nuvem" }, "geometry": { "type": "Point", "coordinates": [ -46.592, -23.6399 ] } },
{ "type": "Feature", "properties": { "Data_hora": "2025-12-30T05:38:14", "lon": -46.5603, "lat": -23.5997, "chi_square_value": 0.2, "max_rate_of_rise": 3.0, "Precisao_coleta": "Altamente Confiável", "Intensidade_do_Raio": "Leve", "Status_Raio": "Raio Nuvem-a-Nuvem" }, "geometry": { "type": "Point", "coordinates": [ -46.5603, -23.5997 ] } },
{ "type": "Feature", "properties": { "Data_hora": "2025-02-18T17:15:44", "lon": -46.6357, "lat": -23.7384, "chi_square_value": 0.5, "max_rate_of_rise": -0.9, "Precisao_coleta": "Altamente Confiável", "Intensidade_do_Raio": "Leve", "Status_Raio": "Raio Comum" }, "geometry": { "type": "Point", "coordinates": [ -46.6357, -23.7384 ] } },
{ "type": "Feature", "properties": { "Data_hora": "2025-12-30T05:26:39", "lon": -46.5302, "lat": -23.582, "chi_square_value": 0.0, "max_rate_of_rise": 2.4, "Precisao_coleta": "Altamente Confiável", "Intensidade_do_Raio": "Leve", "Status_Raio": "Raio Nuvem-a-Nuvem" }, "geometry": { "type": "Point", "coordinates": [ -46.5302, -23.582 ] } },
{ "type": "Feature", "properties": { "Data_hora": "2025-12-30T05:28:35", "lon": -46.7021, "lat": -23.7654, "chi_square_value": 0.5, "max_rate_of_rise": 2.4, "Precisao_coleta": "Altamente Confiável", "Intensidade_do_Raio": "Leve", "Status_Raio": "Raio Nuvem-a-Nuvem" }, "geometry": { "type": "Point", "coordinates": [ -46.7021, -23.7654 ] } },
{ "type": "Feature", "properties": { "Data_hora": "2025-12-30T05:29:04", "lon": -46.5672, "lat": -23.6089, "chi_square_value": 0.0, "max_rate_of_rise": 1.9, "Precisao_coleta": "Altamente Confiável", "Intensidade_do_Raio": "Leve", "Status_Raio": "Raio Nuvem-a-Nuvem" }, "geometry": { "type": "Point", "coordinates": [ -46.5672, -23.6089 ] } },
{ "type": "Feature", "properties": { "Data_hora": "2025-12-30T05:29:24", "lon": -46.5972, "lat": -23.6475, "chi_square_value": 0.2, "max_rate_of_rise": 2.9, "Precisao_coleta": "Altamente Confiável", "Intensidade_do_Raio": "Leve", "Status_Raio": "Raio Nuvem-a-Nuvem" }, "geometry": { "type": "Point", "coordinates": [ -46.5972, -23.6475 ] } },
{ "type": "Feature", "properties": { "Data_hora": "2025-12-30T05:29:42", "lon": -46.5607, "lat": -23.614, "chi_square_value": 0.3, "max_rate_of_rise": 3.0, "Precisao_coleta": "Altamente Confiável", "Intensidade_do_Raio": "Leve", "Status_Raio": "Raio Nuvem-a-Nuvem" }, "geometry": { "type": "Point", "coordinates": [ -46.5607, -23.614 ] } },
{ "type": "Feature", "properties": { "Data_hora": "2025-12-30T05:29:42", "lon": -46.6741, "lat": -23.739, "chi_square_value": 0.4, "max_rate_of_rise": 1.5, "Precisao_coleta": "Altamente Confiável", "Intensidade_do_Raio": "Leve", "Status_Raio": "Raio Nuvem-a-Nuvem" }, "geometry": { "type": "Point", "coordinates": [ -46.6741, -23.739 ] } },
{ "type": "Feature", "properties": { "Data_hora": "2025-02-06T23:15:19", "lon": -46.6413, "lat": -23.7946, "chi_square_value": 0.9, "max_rate_of_rise": 5.0, "Precisao_coleta": "Altamente Confiável", "Intensidade_do_Raio": "Leve", "Status_Raio": "Raio Nuvem-a-Nuvem" }, "geometry": { "type": "Point", "coordinates": [ -46.6413, -23.7946 ] } },
{ "type": "Feature", "properties": { "Data_hora": "2025-02-06T23:18:16", "lon": -46.6428, "lat": -23.8014, "chi_square_value": 0.3, "max_rate_of_rise": 3.0, "Precisao_coleta": "Altamente Confiável", "Intensidade_do_Raio": "Leve", "Status_Raio": "Raio Nuvem-a-Nuvem" }, "geometry": { "type": "Point", "coordinates": [ -46.6428, -23.8014 ] } },
{ "type": "Feature", "properties": { "Data_hora": "2025-02-06T22:54:37", "lon": -46.6208, "lat": -23.6, "chi_square_value": 1.6, "max_rate_of_rise": 4.8, "Precisao_coleta": "Altamente Confiável", "Intensidade_do_Raio": "Leve", "Status_Raio": "Raio Nuvem-a-Nuvem" }, "geometry": { "type": "Point", "coordinates": [ -46.6208, -23.6 ] } },
{ "type": "Feature", "properties": { "Data_hora": "2025-04-10T18:37:47", "lon": -46.6218, "lat": -23.6208, "chi_square_value": 0.7, "max_rate_of_rise": -1.6, "Precisao_coleta": "Altamente Confiável", "Intensidade_do_Raio": "Leve", "Status_Raio": "Raio Comum" }, "geometry": { "type": "Point", "coordinates": [ -46.6218, -23.6208 ] } },
{ "type": "Feature", "properties": { "Data_hora": "2025-04-10T14:52:53", "lon": -46.6004, "lat": -23.7023, "chi_square_value": 0.2, "max_rate_of_rise": -1.2, "Precisao_coleta": "Altamente Confiável", "Intensidade_do_Raio": "Leve", "Status_Raio": "Raio Comum" }, "geometry": { "type": "Point", "coordinates": [ -46.6004, -23.7023 ] } },
{ "type": "Feature", "properties": { "Data_hora": "2025-12-08T16:24:12", "lon": -46.6468, "lat": -23.6835, "chi_square_value": 0.1, "max_rate_of_rise": -1.3, "Precisao_coleta": "Altamente Confiável", "Intensidade_do_Raio": "Leve", "Status_Raio": "Raio Comum" }, "geometry": { "type": "Point", "coordinates": [ -46.6468, -23.6835 ] } },
{ "type": "Feature", "properties": { "Data_hora": "2025-12-08T16:24:37", "lon": -46.6376, "lat": -23.6978, "chi_square_value": 0.2, "max_rate_of_rise": -1.5, "Precisao_coleta": "Altamente Confiável", "Intensidade_do_Raio": "Leve", "Status_Raio": "Raio Comum" }, "geometry": { "type": "Point", "coordinates": [ -46.6376, -23.6978 ] } },
{ "type": "Feature", "properties": { "Data_hora": "2025-12-09T03:45:54", "lon": -46.6503, "lat": -23.7175, "chi_square_value": 0.3, "max_rate_of_rise": -2.4, "Precisao_coleta": "Altamente Confiável", "Intensidade_do_Raio": "Leve", "Status_Raio": "Raio Comum" }, "geometry": { "type": "Point", "coordinates": [ -46.6503, -23.7175 ] } },
{ "type": "Feature", "properties": { "Data_hora": "2025-02-20T17:14:26", "lon": -46.4776, "lat": -23.6549, "chi_square_value": 0.1, "max_rate_of_rise": 0.8, "Precisao_coleta": "Altamente Confiável", "Intensidade_do_Raio": "Leve", "Status_Raio": "Raio Nuvem-a-Nuvem" }, "geometry": { "type": "Point", "coordinates": [ -46.4776, -23.6549 ] } },
{ "type": "Feature", "properties": { "Data_hora": "2025-12-31T18:44:09", "lon": -46.6907, "lat": -23.7951, "chi_square_value": 0.1, "max_rate_of_rise": 1.8, "Precisao_coleta": "Altamente Confiável", "Intensidade_do_Raio": "Leve", "Status_Raio": "Raio Nuvem-a-Nuvem" }, "geometry": { "type": "Point", "coordinates": [ -46.6907, -23.7951 ] } },
{ "type": "Feature", "properties": { "Data_hora": "2025-12-02T19:40:59", "lon": -46.6462, "lat": -23.6663, "chi_square_value": 0.0, "max_rate_of_rise": -1.2, "Precisao_coleta": "Altamente Confiável", "Intensidade_do_Raio": "Leve", "Status_Raio": "Raio Comum" }, "geometry": { "type": "Point", "coordinates": [ -46.6462, -23.6663 ] } },
{ "type": "Feature", "properties": { "Data_hora": "2025-12-30T05:50:29", "lon": -46.4738, "lat": -23.6475, "chi_square_value": 0.3, "max_rate_of_rise": 0.9, "Precisao_coleta": "Altamente Confiável", "Intensidade_do_Raio": "Leve", "Status_Raio": "Raio Nuvem-a-Nuvem" }, "geometry": { "type": "Point", "coordinates": [ -46.4738, -23.6475 ] } }
]
}
