{
"type": "FeatureCollection",
"name": "geometria_area_raios",
"crs": { "type": "name", "properties": { "name": "urn:ogc:def:crs:EPSG::4618" } },
"features": [
{ "type": "Feature", "properties": { "numero_de_raios": 8378 }, "geometry": { "type": "Polygon", "coordinates": [ [ [ -52.2265, -26.5656 ], [ -52.228421471959678, -26.585109032201611 ], [ -52.234112046748876, -26.60386834323651 ], [ -52.243353038769747, -26.621157023301961 ], [ -52.255789321881345, -26.636310678118654 ], [ -52.270942976698045, -26.648746961230255 ], [ -52.288231656763493, -26.65798795325113 ], [ -52.306990967798392, -26.663678528040322 ], [ -52.3265, -26.6656 ], [ -52.346009032201614, -26.663678528040322 ], [ -52.364768343236513, -26.65798795325113 ], [ -52.382057023301961, -26.648746961230255 ], [ -52.397210678118661, -26.636310678118654 ], [ -52.409646961230258, -26.621157023301961 ], [ -52.418887953251129, -26.60386834323651 ], [ -52.424578528040328, -26.585109032201611 ], [ -52.4265, -26.5656 ], [ -52.424578528040328, -26.546090967798389 ], [ -52.418887953251129, -26.52733165676349 ], [ -52.409646961230258, -26.510042976698038 ], [ -52.397210678118661, -26.494889321881345 ], [ -52.382057023301961, -26.482453038769744 ], [ -52.364768343236513, -26.47321204674887 ], [ -52.346009032201614, -26.467521471959678 ], [ -52.3265, -26.4656 ], [ -52.306990967798392, -26.467521471959678 ], [ -52.288231656763493, -26.47321204674887 ], [ -52.270942976698045, -26.482453038769744 ], [ -52.255789321881345, -26.494889321881345 ], [ -52.243353038769747, -26.510042976698038 ], [ -52.234112046748876, -26.52733165676349 ], [ -52.228421471959678, -26.546090967798389 ], [ -52.2265, -26.5656 ] ] ] } }
]
}
